[{"OBJECT_NAME":"HYPSO-2","OBJECT_ID":"2024-149BR","EPOCH":"2026-03-09T15:24:17.277696","MEAN_MOTION":14.98259029,"ECCENTRICITY":0.00013898,"INCLINATION":97.6894,"RA_OF_ASC_NODE":146.3679,"ARG_OF_PERICENTER":74.8032,"MEAN_ANOMALY":285.3344,"EPHEMERIS_TYPE":0,"CLASSIFICATION_TYPE":"U","NORAD_CAT_ID":60531,"ELEMENT_SET_NO":999,"REV_AT_EPOCH":8514,"BSTAR":0.00033979817,"MEAN_MOTION_DOT":3.981e-5,"MEAN_MOTION_DDOT":0},{"OBJECT_NAME":"STARLINK-34514","OBJECT_ID":"2025-129E","EPOCH":"2026-03-09T23:22:55.702848","MEAN_MOTION":14.98342959,"ECCENTRICITY":0.00028603,"INCLINATION":70.0033,"RA_OF_ASC_NODE":73.5951,"ARG_OF_PERICENTER":249.8497,"MEAN_ANOMALY":110.2354,"EPHEMERIS_TYPE":0,"CLASSIFICATION_TYPE":"U","NORAD_CAT_ID":64416,"ELEMENT_SET_NO":999,"REV_AT_EPOCH":4133,"BSTAR":0.00028360567,"MEAN_MOTION_DOT":3.294e-5,"MEAN_MOTION_DDOT":0}]
